{"type": "FeatureCollection", "features": [ {"type": "Feature", "properties": {"norad_id": 43623, "name": "BEIDOU-3 M14 (C33)", "group": "beidou", "lat": 46.94195689091663, "lon": 114.23632551952652, "alt_km": 21521.814770705874, "timestamp": "2025-12-04T13:52:00.708094+00:00", "meta": {"OBJECT_NAME": "BEIDOU-3 M14 (C33)", "OBJECT_ID": "2018-072B", "EPOCH": "2025-12-01T19:14:30.937344", "MEAN_MOTION": 1.86230707, "ECCENTRICITY": 0.00030488, "INCLINATION": 56.4513, "RA_OF_ASC_NODE": 69.1766, "ARG_OF_PERICENTER": 335.7773, "MEAN_ANOMALY": 24.2115, "EPHEMERIS_TYPE": 0, "CLASSIFICATION_TYPE": "U", "NORAD_CAT_ID": 43623, "ELEMENT_SET_NO": 999, "REV_AT_EPOCH": 4897, "BSTAR": 0, "MEAN_MOTION_DOT": -4.3e-07, "MEAN_MOTION_DDOT": 0}, "tle": {"line1": "1 43623U 18072B   25335.80174696 -.00000043  00000+0  00000+0 0  9991", "line2": "2 43623  56.4513  69.1766 0003048 335.7773  24.2115  1.86230707 48976"}}, "geometry": {"type": "Point", "coordinates": [114.23632551952652, 46.94195689091663]}}, {"type": "Feature", "properties": {"norad_id": 43647, "name": "BEIDOU-3 M16 (C35)", "group": "beidou", "lat": -34.85190358378422, "lon": -83.2837884209086, "alt_km": 21523.44225092517, "timestamp": "2025-12-04T13:52:00.708106+00:00", "meta": {"OBJECT_NAME": "BEIDOU-3 M16 (C35)", "OBJECT_ID": "2018-078A", "EPOCH": "2025-12-03T00:48:25.625088", "MEAN_MOTION": 1.86232114, "ECCENTRICITY": 0.00069753, "INCLINATION": 54.271, "RA_OF_ASC_NODE": 306.8606, "ARG_OF_PERICENTER": 18.45, "MEAN_ANOMALY": 341.5609, "EPHEMERIS_TYPE": 0, "CLASSIFICATION_TYPE": "U", "NORAD_CAT_ID": 43647, "ELEMENT_SET_NO": 999, "REV_AT_EPOCH": 4850, "BSTAR": 0, "MEAN_MOTION_DOT": -6.5e-07, "MEAN_MOTION_DDOT": 0}, "tle": {"line1": "1 43647U 18078A   25337.03362992 -.00000065  00000+0  00000+0 0  9992", "line2": "2 43647  54.2710 306.8606 0006975  18.4500 341.5609  1.86232114 48502"}}, "geometry": {"type": "Point", "coordinates": [-83.2837884209086, -34.85190358378422]}}, {"type": "Feature", "properties": {"norad_id": 43648, "name": "BEIDOU-3 M15 (C34)", "group": "beidou", "lat": -37.56850386525367, "lon": 160.3945388556477, "alt_km": 21540.940490283665, "timestamp": "2025-12-04T13:52:00.708117+00:00", "meta": {"OBJECT_NAME": "BEIDOU-3 M15 (C34)", "OBJECT_ID": "2018-078B", "EPOCH": "2025-12-01T00:21:40.976640", "MEAN_MOTION": 1.86232, "ECCENTRICITY": 0.0003569, "INCLINATION": 54.2686, "RA_OF_ASC_NODE": 306.9322, "ARG_OF_PERICENTER": 17.0419, "MEAN_ANOMALY": 342.9634, "EPHEMERIS_TYPE": 0, "CLASSIFICATION_TYPE": "U", "NORAD_CAT_ID": 43648, "ELEMENT_SET_NO": 999, "REV_AT_EPOCH": 4848, "BSTAR": 0, "MEAN_MOTION_DOT": -5.6e-07, "MEAN_MOTION_DDOT": 0}, "tle": {"line1": "1 43648U 18078B   25335.01505760 -.00000056  00000+0  00000+0 0  9991", "line2": "2 43648  54.2686 306.9322 0003569  17.0419 342.9634  1.86232000 48485"}}, "geometry": {"type": "Point", "coordinates": [160.3945388556477, -37.56850386525367]}}, {"type": "Feature", "properties": {"norad_id": 43683, "name": "BEIDOU-3 G1 (C59)", "group": "beidou", "lat": -1.6864539193357242, "lon": 61.68771515493649, "alt_km": 35788.2208867711, "timestamp": "2025-12-04T13:52:00.708128+00:00", "meta": {"OBJECT_NAME": "BEIDOU-3 G1 (C59)", "OBJECT_ID": "2018-085A", "EPOCH": "2025-12-04T07:32:36.708000", "MEAN_MOTION": 1.00273332, "ECCENTRICITY": 0.000201, "INCLINATION": 2.585, "RA_OF_ASC_NODE": 103.2138, "ARG_OF_PERICENTER": 64.3328, "MEAN_ANOMALY": 159.0407, "EPHEMERIS_TYPE": 0, "CLASSIFICATION_TYPE": "U", "NORAD_CAT_ID": 43683, "ELEMENT_SET_NO": 999, "REV_AT_EPOCH": 2610, "BSTAR": 0, "MEAN_MOTION_DOT": -2.62e-06, "MEAN_MOTION_DDOT": 0}, "tle": {"line1": "1 43683U 18085A   25338.31431375 -.00000262  00000+0  00000+0 0  9993", "line2": "2 43683   2.5850 103.2138 0002010  64.3328 159.0407  1.00273332 26109"}}, "geometry": {"type": "Point", "coordinates": [61.68771515493649, -1.6864539193357242]}}, {"type": "Feature", "properties": {"norad_id": 43706, "name": "BEIDOU-3 M17 (C36)", "group": "beidou", "lat": 43.190457098722646, "lon": -33.799855152689155, "alt_km": 21540.743415848414, "timestamp": "2025-12-04T13:52:00.708139+00:00", "meta": {"OBJECT_NAME": "BEIDOU-3 M17 (C36)", "OBJECT_ID": "2018-093A", "EPOCH": "2025-12-03T14:10:37.280064", "MEAN_MOTION": 1.86228161, "ECCENTRICITY": 0.00063465, "INCLINATION": 54.1727, "RA_OF_ASC_NODE": 188.9327, "ARG_OF_PERICENTER": 306.3477, "MEAN_ANOMALY": 234.3147, "EPHEMERIS_TYPE": 0, "CLASSIFICATION_TYPE": "U", "NORAD_CAT_ID": 43706, "ELEMENT_SET_NO": 999, "REV_AT_EPOCH": 4789, "BSTAR": 0, "MEAN_MOTION_DOT": 1.14e-06, "MEAN_MOTION_DDOT": 0}, "tle": {"line1": "1 43706U 18093A   25337.59070926  .00000114  00000+0  00000+0 0  9993", "line2": "2 43706  54.1727 188.9327 0006346 306.3477 234.3147  1.86228161 47892"}}, "geometry": {"type": "Point", "coordinates": [-33.799855152689155, 43.190457098722646]}}, {"type": "Feature", "properties": {"norad_id": 43707, "name": "BEIDOU-3 M18 (C37)", "group": "beidou", "lat": -27.92125610825688, "lon": 31.41297764055458, "alt_km": 21544.872831181438, "timestamp": "2025-12-04T13:52:00.708150+00:00", "meta": {"OBJECT_NAME": "BEIDOU-3 M18 (C37)", "OBJECT_ID": "2018-093B", "EPOCH": "2025-12-03T17:16:21.121824", "MEAN_MOTION": 1.86226418, "ECCENTRICITY": 0.00063643, "INCLINATION": 54.1733, "RA_OF_ASC_NODE": 188.9202, "ARG_OF_PERICENTER": 351.2159, "MEAN_ANOMALY": 8.8675, "EPHEMERIS_TYPE": 0, "CLASSIFICATION_TYPE": "U", "NORAD_CAT_ID": 43707, "ELEMENT_SET_NO": 999, "REV_AT_EPOCH": 4789, "BSTAR": 0, "MEAN_MOTION_DOT": 1.13e-06, "MEAN_MOTION_DDOT": 0}, "tle": {"line1": "1 43707U 18093B   25337.71968891  .00000113  00000+0  00000+0 0  9994", "line2": "2 43707  54.1733 188.9202 0006364 351.2159   8.8675  1.86226418 47891"}}, "geometry": {"type": "Point", "coordinates": [31.41297764055458, -27.92125610825688]}}, {"type": "Feature", "properties": {"norad_id": 44204, "name": "BEIDOU-3 IGSO-1 (C38)", "group": "beidou", "lat": -3.332611438521144, "lon": 37.65011709751207, "alt_km": 35874.24869160681, "timestamp": "2025-12-04T13:52:00.708162+00:00", "meta": {"OBJECT_NAME": "BEIDOU-3 IGSO-1 (C38)", "OBJECT_ID": "2019-023A", "EPOCH": "2025-11-19T14:15:02.708640", "MEAN_MOTION": 1.00252177, "ECCENTRICITY": 0.0026966, "INCLINATION": 58.4003, "RA_OF_ASC_NODE": 39.8168, "ARG_OF_PERICENTER": 221.2202, "MEAN_ANOMALY": 126.9723, "EPHEMERIS_TYPE": 0, "CLASSIFICATION_TYPE": "U", "NORAD_CAT_ID": 44204, "ELEMENT_SET_NO": 999, "REV_AT_EPOCH": 510, "BSTAR": 0, "MEAN_MOTION_DOT": -2.26e-06, "MEAN_MOTION_DDOT": 0}, "tle": {"line1": "1 44204U 19023A   25323.59378135 -.00000226  00000+0  00000+0 0  9994", "line2": "2 44204  58.4003  39.8168 0026966 221.2202 126.9723  1.00252177  5102"}}, "geometry": {"type": "Point", "coordinates": [37.65011709751207, -3.332611438521144]}}, {"type": "Feature", "properties": {"norad_id": 44231, "name": "BEIDOU-2 G8 (C01)", "group": "beidou", "lat": -0.21303714253904085, "lon": 66.29768124403112, "alt_km": 35790.90194106056, "timestamp": "2025-12-04T13:52:00.708176+00:00", "meta": {"OBJECT_NAME": "BEIDOU-2 G8 (C01)", "OBJECT_ID": "2019-027A", "EPOCH": "2025-12-04T07:33:59.075712", "MEAN_MOTION": 1.00269905, "ECCENTRICITY": 0.00083835, "INCLINATION": 1.639, "RA_OF_ASC_NODE": 74.7036, "ARG_OF_PERICENTER": 254.7204, "MEAN_ANOMALY": 2.0308, "EPHEMERIS_TYPE": 0, "CLASSIFICATION_TYPE": "U", "NORAD_CAT_ID": 44231, "ELEMENT_SET_NO": 999, "REV_AT_EPOCH": 2412, "BSTAR": 0, "MEAN_MOTION_DOT": -2.32e-06, "MEAN_MOTION_DDOT": 0}, "tle": {"line1": "1 44231U 19027A   25338.31526708 -.00000232  00000+0  00000+0 0  9992", "line2": "2 44231   1.6390  74.7036 0008383 254.7204   2.0308  1.00269905 24122"}}, "geometry": {"type": "Point", "coordinates": [66.29768124403112, -0.21303714253904085]}}, {"type": "Feature", "properties": {"norad_id": 44337, "name": "BEIDOU-3 IGSO-2 (C39)", "group": "beidou", "lat": -45.80360109765232, "lon": 26.286040571694834, "alt_km": 35667.110962103274, "timestamp": "2025-12-04T13:52:00.708187+00:00", "meta": {"OBJECT_NAME": "BEIDOU-3 IGSO-2 (C39)", "OBJECT_ID": "2019-035A", "EPOCH": "2025-12-01T05:17:49.661952", "MEAN_MOTION": 1.00274502, "ECCENTRICITY": 0.00376064, "INCLINATION": 55.2223, "RA_OF_ASC_NODE": 160.6035, "ARG_OF_PERICENTER": 202.2564, "MEAN_ANOMALY": 266.4761, "EPHEMERIS_TYPE": 0, "CLASSIFICATION_TYPE": "U", "NORAD_CAT_ID": 44337, "ELEMENT_SET_NO": 999, "REV_AT_EPOCH": 2368, "BSTAR": 0, "MEAN_MOTION_DOT": -2.5e-07, "MEAN_MOTION_DDOT": 0}, "tle": {"line1": "1 44337U 19035A   25335.22071368 -.00000025  00000+0  00000+0 0  9992", "line2": "2 44337  55.2223 160.6035 0037606 202.2564 266.4761  1.00274502 23688"}}, "geometry": {"type": "Point", "coordinates": [26.286040571694834, -45.80360109765232]}}, {"type": "Feature", "properties": {"norad_id": 44542, "name": "BEIDOU-3 M24 (C46)", "group": "beidou", "lat": 9.9316384923245, "lon": 2.0938225335764296, "alt_km": 21548.71293582138, "timestamp": "2025-12-04T13:52:00.708199+00:00", "meta": {"OBJECT_NAME": "BEIDOU-3 M24 (C46)", "OBJECT_ID": "2019-061A", "EPOCH": "2025-12-03T18:58:50.861280", "MEAN_MOTION": 1.86229252, "ECCENTRICITY": 0.00095721, "INCLINATION": 54.4001, "RA_OF_ASC_NODE": 189.3183, "ARG_OF_PERICENTER": 23.909, "MEAN_ANOMALY": 336.2302, "EPHEMERIS_TYPE": 0, "CLASSIFICATION_TYPE": "U", "NORAD_CAT_ID": 44542, "ELEMENT_SET_NO": 999, "REV_AT_EPOCH": 4215, "BSTAR": 0, "MEAN_MOTION_DOT": 1.12e-06, "MEAN_MOTION_DDOT": 0}, "tle": {"line1": "1 44542U 19061A   25337.79086645  .00000112  00000+0  00000+0 0  9993", "line2": "2 44542  54.4001 189.3183 0009572  23.9090 336.2302  1.86229252 42152"}}, "geometry": {"type": "Point", "coordinates": [2.0938225335764296, 9.9316384923245]}}]}